*******************************************************************************
Ephemeris / WWW_USER Fri Mar  7 09:53:03 2025 Pasadena, USA      / Horizons    
*******************************************************************************
Target body name: Triton (801)                    {source: nep097_merged}
Center body name: Earth (399)                     {source: nep097_merged}
Center-site name: Mauna Kea
*******************************************************************************
Start time      : A.D. 2018-Sep-13 04:36:00.0000 UT      
Stop  time      : A.D. 2018-Sep-13 15:59:00.0000 UT      
Step-size       : 1 minutes
*******************************************************************************
Target pole/equ : IAU_TRITON                      {East-longitude positive}
Target radii    : 1352.6, 1352.6, 1352.6 km       {Equator_a, b, pole_c}       
Center geodetic : 204.5278, 19.8260847, 4.21024   {E-lon(deg),Lat(deg),Alt(km)}
Center cylindric: 204.5278, 6006.35451, 2151.0229 {E-lon(deg),Dxy(km),Dz(km)}
Center pole/equ : ITRF93                          {East-longitude positive}
Center radii    : 6378.137, 6378.137, 6356.752 km {Equator_a, b, pole_c}       
Target primary  : Neptune
Vis. interferer : MOON (R_eq= 1737.400) km        {source: DE441}
Rel. light bend : Sun                             {source: nep097_merged}
Rel. lght bnd GM: 1.3271E+11 km^3/s^2                                          
Atmos refraction: NO (AIRLESS)
RA format       : HMS
Time format     : CAL 
Calendar mode   : Mixed Julian/Gregorian
RTS-only print  : NO       
EOP file        : eop.250306.p250602                                           
EOP coverage    : DATA-BASED 1962-JAN-20 TO 2025-MAR-06. PREDICTS-> 2025-JUN-01
Units conversion: 1 au= 149597870.700 km, c= 299792.458 km/s, 1 day= 86400.0 s 
Table cut-offs 1: Elevation (-90.0deg=NO ),Airmass (>38.000=NO), Daylight (YES)
Table cut-offs 2: Solar elongation (  0.0,180.0=NO ),Local Hour Angle( 0.0=NO )
Table cut-offs 3: RA/DEC angular rate (     0.0=NO )                           
*******************************************************************************
 Date__(UT)__HR:MN     R.A._________(ICRF)_________DEC
******************************************************
$$SOE
 2018-Sep-13 04:36 Cm  23 05 04.696198 -06 57 20.86146
 2018-Sep-13 04:37 Cm  23 05 04.692507 -06 57 20.88934
 2018-Sep-13 04:38 Cm  23 05 04.688816 -06 57 20.91723
 2018-Sep-13 04:39 Cm  23 05 04.685124 -06 57 20.94513
 2018-Sep-13 04:40 Cm  23 05 04.681432 -06 57 20.97304
 2018-Sep-13 04:41 Cm  23 05 04.677739 -06 57 21.00095
 2018-Sep-13 04:42 Cm  23 05 04.674046 -06 57 21.02887
 2018-Sep-13 04:43 Cm  23 05 04.670352 -06 57 21.05680
 2018-Sep-13 04:44 Cm  23 05 04.666657 -06 57 21.08474
 2018-Sep-13 04:45 Cm  23 05 04.662962 -06 57 21.11269
 2018-Sep-13 04:46 Cm  23 05 04.659266 -06 57 21.14064
 2018-Sep-13 04:47 Cm  23 05 04.655570 -06 57 21.16861
 2018-Sep-13 04:48 Cm  23 05 04.651873 -06 57 21.19658
 2018-Sep-13 04:49 Cm  23 05 04.648175 -06 57 21.22456
 2018-Sep-13 04:50 Nm  23 05 04.644477 -06 57 21.25254
 2018-Sep-13 04:51 Nm  23 05 04.640778 -06 57 21.28054
 2018-Sep-13 04:52 Nm  23 05 04.637079 -06 57 21.30854
 2018-Sep-13 04:53 Nm  23 05 04.633379 -06 57 21.33656
 2018-Sep-13 04:54 Nm  23 05 04.629678 -06 57 21.36458
 2018-Sep-13 04:55 Nm  23 05 04.625977 -06 57 21.39260
 2018-Sep-13 04:56 Nm  23 05 04.622275 -06 57 21.42064
 2018-Sep-13 04:57 Nm  23 05 04.618573 -06 57 21.44869
 2018-Sep-13 04:58 Nm  23 05 04.614870 -06 57 21.47674
 2018-Sep-13 04:59 Nm  23 05 04.611167 -06 57 21.50480
 2018-Sep-13 05:00 Nm  23 05 04.607463 -06 57 21.53287
 2018-Sep-13 05:01 Nm  23 05 04.603758 -06 57 21.56095
 2018-Sep-13 05:02 Nm  23 05 04.600053 -06 57 21.58903
 2018-Sep-13 05:03 Nm  23 05 04.596347 -06 57 21.61713
 2018-Sep-13 05:04 Nm  23 05 04.592641 -06 57 21.64523
 2018-Sep-13 05:05 Nm  23 05 04.588934 -06 57 21.67334
 2018-Sep-13 05:06 Nm  23 05 04.585226 -06 57 21.70146
 2018-Sep-13 05:07 Nm  23 05 04.581518 -06 57 21.72958
 2018-Sep-13 05:08 Nm  23 05 04.577809 -06 57 21.75772
 2018-Sep-13 05:09 Nm  23 05 04.574100 -06 57 21.78586
 2018-Sep-13 05:10 Nm  23 05 04.570390 -06 57 21.81401
 2018-Sep-13 05:11 Nm  23 05 04.566680 -06 57 21.84217
 2018-Sep-13 05:12 Nm  23 05 04.562969 -06 57 21.87033
 2018-Sep-13 05:13 Nm  23 05 04.559257 -06 57 21.89851
 2018-Sep-13 05:14 Nm  23 05 04.555545 -06 57 21.92669
 2018-Sep-13 05:15 Am  23 05 04.551832 -06 57 21.95488
 2018-Sep-13 05:16 Am  23 05 04.548118 -06 57 21.98308
 2018-Sep-13 05:17 Am  23 05 04.544404 -06 57 22.01129
 2018-Sep-13 05:18 Am  23 05 04.540690 -06 57 22.03950
 2018-Sep-13 05:19 Am  23 05 04.536975 -06 57 22.06773
 2018-Sep-13 05:20 Am  23 05 04.533259 -06 57 22.09596
 2018-Sep-13 05:21 Am  23 05 04.529543 -06 57 22.12420
 2018-Sep-13 05:22 Am  23 05 04.525826 -06 57 22.15244
 2018-Sep-13 05:23 Am  23 05 04.522108 -06 57 22.18070
 2018-Sep-13 05:24 Am  23 05 04.518390 -06 57 22.20896
 2018-Sep-13 05:25 Am  23 05 04.514671 -06 57 22.23723
 2018-Sep-13 05:26 Am  23 05 04.510952 -06 57 22.26551
 2018-Sep-13 05:27 Am  23 05 04.507232 -06 57 22.29380
 2018-Sep-13 05:28 Am  23 05 04.503512 -06 57 22.32210
 2018-Sep-13 05:29 Am  23 05 04.499791 -06 57 22.35040
 2018-Sep-13 05:30 Am  23 05 04.496069 -06 57 22.37871
 2018-Sep-13 05:31 Am  23 05 04.492347 -06 57 22.40703
 2018-Sep-13 05:32 Am  23 05 04.488624 -06 57 22.43536
 2018-Sep-13 05:33 Am  23 05 04.484901 -06 57 22.46369
 2018-Sep-13 05:34 Am  23 05 04.481177 -06 57 22.49204
 2018-Sep-13 05:35 Am  23 05 04.477453 -06 57 22.52039
 2018-Sep-13 05:36 Am  23 05 04.473728 -06 57 22.54875
 2018-Sep-13 05:37 Am  23 05 04.470002 -06 57 22.57712
 2018-Sep-13 05:38 Am  23 05 04.466276 -06 57 22.60549
 2018-Sep-13 05:39 Am  23 05 04.462549 -06 57 22.63388
 2018-Sep-13 05:40 Am  23 05 04.458822 -06 57 22.66227
 2018-Sep-13 05:41  m  23 05 04.455094 -06 57 22.69067
 2018-Sep-13 05:42  m  23 05 04.451365 -06 57 22.71908
 2018-Sep-13 05:43  m  23 05 04.447636 -06 57 22.74749
 2018-Sep-13 05:44  m  23 05 04.443906 -06 57 22.77592
 2018-Sep-13 05:45  m  23 05 04.440176 -06 57 22.80435
 2018-Sep-13 05:46  m  23 05 04.436445 -06 57 22.83279
 2018-Sep-13 05:47  m  23 05 04.432714 -06 57 22.86123
 2018-Sep-13 05:48  m  23 05 04.428982 -06 57 22.88969
 2018-Sep-13 05:49  m  23 05 04.425250 -06 57 22.91815
 2018-Sep-13 05:50  m  23 05 04.421516 -06 57 22.94663
 2018-Sep-13 05:51  m  23 05 04.417783 -06 57 22.97511
 2018-Sep-13 05:52  m  23 05 04.414048 -06 57 23.00359
 2018-Sep-13 05:53  m  23 05 04.410314 -06 57 23.03209
 2018-Sep-13 05:54  m  23 05 04.406578 -06 57 23.06059
 2018-Sep-13 05:55  m  23 05 04.402842 -06 57 23.08910
 2018-Sep-13 05:56  m  23 05 04.399106 -06 57 23.11762
 2018-Sep-13 05:57  m  23 05 04.395369 -06 57 23.14615
 2018-Sep-13 05:58  m  23 05 04.391631 -06 57 23.17468
 2018-Sep-13 05:59  m  23 05 04.387893 -06 57 23.20323
 2018-Sep-13 06:00  m  23 05 04.384154 -06 57 23.23178
 2018-Sep-13 06:01  m  23 05 04.380414 -06 57 23.26034
 2018-Sep-13 06:02  m  23 05 04.376674 -06 57 23.28890
 2018-Sep-13 06:03  m  23 05 04.372934 -06 57 23.31748
 2018-Sep-13 06:04  m  23 05 04.369193 -06 57 23.34606
 2018-Sep-13 06:05  m  23 05 04.365451 -06 57 23.37465
 2018-Sep-13 06:06  m  23 05 04.361709 -06 57 23.40325
 2018-Sep-13 06:07  m  23 05 04.357966 -06 57 23.43186
 2018-Sep-13 06:08  m  23 05 04.354223 -06 57 23.46047
 2018-Sep-13 06:09  m  23 05 04.350479 -06 57 23.48909
 2018-Sep-13 06:10  m  23 05 04.346734 -06 57 23.51772
 2018-Sep-13 06:11  m  23 05 04.342989 -06 57 23.54636
 2018-Sep-13 06:12  m  23 05 04.339244 -06 57 23.57501
 2018-Sep-13 06:13  m  23 05 04.335498 -06 57 23.60366
 2018-Sep-13 06:14  m  23 05 04.331751 -06 57 23.63232
 2018-Sep-13 06:15  m  23 05 04.328004 -06 57 23.66099
 2018-Sep-13 06:16  m  23 05 04.324256 -06 57 23.68967
 2018-Sep-13 06:17  m  23 05 04.320507 -06 57 23.71836
 2018-Sep-13 06:18  m  23 05 04.316758 -06 57 23.74705
 2018-Sep-13 06:19  m  23 05 04.313009 -06 57 23.77575
 2018-Sep-13 06:20  m  23 05 04.309259 -06 57 23.80446
 2018-Sep-13 06:21  m  23 05 04.305508 -06 57 23.83318
 2018-Sep-13 06:22  m  23 05 04.301757 -06 57 23.86190
 2018-Sep-13 06:23  m  23 05 04.298005 -06 57 23.89063
 2018-Sep-13 06:24  m  23 05 04.294253 -06 57 23.91937
 2018-Sep-13 06:25  m  23 05 04.290500 -06 57 23.94812
 2018-Sep-13 06:26  m  23 05 04.286747 -06 57 23.97688
 2018-Sep-13 06:27  m  23 05 04.282993 -06 57 24.00564
 2018-Sep-13 06:28  m  23 05 04.279238 -06 57 24.03441
 2018-Sep-13 06:29  m  23 05 04.275483 -06 57 24.06319
 2018-Sep-13 06:30  m  23 05 04.271728 -06 57 24.09198
 2018-Sep-13 06:31  m  23 05 04.267971 -06 57 24.12078
 2018-Sep-13 06:32  m  23 05 04.264215 -06 57 24.14958
 2018-Sep-13 06:33  m  23 05 04.260457 -06 57 24.17839
 2018-Sep-13 06:34  m  23 05 04.256700 -06 57 24.20721
 2018-Sep-13 06:35  m  23 05 04.252941 -06 57 24.23603
 2018-Sep-13 06:36  m  23 05 04.249182 -06 57 24.26487
 2018-Sep-13 06:37  m  23 05 04.245423 -06 57 24.29371
 2018-Sep-13 06:38  m  23 05 04.241663 -06 57 24.32256
 2018-Sep-13 06:39  m  23 05 04.237902 -06 57 24.35142
 2018-Sep-13 06:40  m  23 05 04.234141 -06 57 24.38028
 2018-Sep-13 06:41  m  23 05 04.230380 -06 57 24.40916
 2018-Sep-13 06:42  m  23 05 04.226618 -06 57 24.43804
 2018-Sep-13 06:43  m  23 05 04.222855 -06 57 24.46693
 2018-Sep-13 06:44  m  23 05 04.219092 -06 57 24.49582
 2018-Sep-13 06:45  m  23 05 04.215328 -06 57 24.52473
 2018-Sep-13 06:46  m  23 05 04.211564 -06 57 24.55364
 2018-Sep-13 06:47  m  23 05 04.207799 -06 57 24.58256
 2018-Sep-13 06:48  m  23 05 04.204033 -06 57 24.61149
 2018-Sep-13 06:49  m  23 05 04.200267 -06 57 24.64042
 2018-Sep-13 06:50  m  23 05 04.196501 -06 57 24.66937
 2018-Sep-13 06:51  m  23 05 04.192734 -06 57 24.69832
 2018-Sep-13 06:52  m  23 05 04.188966 -06 57 24.72728
 2018-Sep-13 06:53  m  23 05 04.185198 -06 57 24.75624
 2018-Sep-13 06:54  m  23 05 04.181430 -06 57 24.78522
 2018-Sep-13 06:55  m  23 05 04.177661 -06 57 24.81420
